CCSDS_OMM_VERS = 2.0
CREATION_DATE  = 
ORIGINATOR     = 

OBJECT_NAME    = PROGRESS-MS 32
OBJECT_ID      = 2025-204A
CENTER_NAME    = EARTH
REF_FRAME      = TEME
TIME_SYSTEM    = UTC
MEAN_ELEMENT_THEORY = SGP/SGP4

EPOCH          = 2025-10-29T04:00:35.664480
MEAN_MOTION    = 15.49570566
ECCENTRICITY   = .00047939
INCLINATION    = 51.6346
RA_OF_ASC_NODE = 3.1486
ARG_OF_PERICENTER = 352.0349
MEAN_ANOMALY   = 8.0563

EPHEMERIS_TYPE = 0
CLASSIFICATION_TYPE = U
NORAD_CAT_ID   = 65586
ELEMENT_SET_NO = 999
REV_AT_EPOCH   = 27
BSTAR          = .26191412E-3
MEAN_MOTION_DOT = .14299E-3
MEAN_MOTION_DDOT = 0

CCSDS_OMM_VERS = 2.0
CREATION_DATE  = 
ORIGINATOR     = 

OBJECT_NAME    = CYGNUS NG-23
OBJECT_ID      = 2025-208A
CENTER_NAME    = EARTH
REF_FRAME      = TEME
TIME_SYSTEM    = UTC
MEAN_ELEMENT_THEORY = SGP/SGP4

EPOCH          = 2025-10-29T04:00:35.664480
MEAN_MOTION    = 15.49570566
ECCENTRICITY   = .00047939
INCLINATION    = 51.6346
RA_OF_ASC_NODE = 3.1486
ARG_OF_PERICENTER = 352.0349
MEAN_ANOMALY   = 8.0563

EPHEMERIS_TYPE = 0
CLASSIFICATION_TYPE = U
NORAD_CAT_ID   = 65616
ELEMENT_SET_NO = 999
REV_AT_EPOCH   = 22
BSTAR          = .26191412E-3
MEAN_MOTION_DOT = .14299E-3
MEAN_MOTION_DDOT = 0

CCSDS_OMM_VERS = 2.0
CREATION_DATE  = 
ORIGINATOR     = 

OBJECT_NAME    = DRAGONFLY
OBJECT_ID      = 1998-067XH
CENTER_NAME    = EARTH
REF_FRAME      = TEME
TIME_SYSTEM    = UTC
MEAN_ELEMENT_THEORY = SGP/SGP4

EPOCH          = 2025-10-29T10:02:12.068736
MEAN_MOTION    = 15.58973793
ECCENTRICITY   = .0003083
INCLINATION    = 51.6318
RA_OF_ASC_NODE = 0.3294
ARG_OF_PERICENTER = 53.6299
MEAN_ANOMALY   = 306.4978

EPHEMERIS_TYPE = 0
CLASSIFICATION_TYPE = U
NORAD_CAT_ID   = 65729
ELEMENT_SET_NO = 999
REV_AT_EPOCH   = 622
BSTAR          = .13038E-2
MEAN_MOTION_DOT = .104205E-2
MEAN_MOTION_DDOT = 0

CCSDS_OMM_VERS = 2.0
CREATION_DATE  = 
ORIGINATOR     = 

OBJECT_NAME    = 1998-067XJ
OBJECT_ID      = 1998-067XJ
CENTER_NAME    = EARTH
REF_FRAME      = TEME
TIME_SYSTEM    = UTC
MEAN_ELEMENT_THEORY = SGP/SGP4

EPOCH          = 2025-10-29T09:41:46.552992
MEAN_MOTION    = 15.66265981
ECCENTRICITY   = .0010537
INCLINATION    = 51.6300
RA_OF_ASC_NODE = 359.4809
ARG_OF_PERICENTER = 29.3069
MEAN_ANOMALY   = 330.8516

EPHEMERIS_TYPE = 0
CLASSIFICATION_TYPE = U
NORAD_CAT_ID   = 65730
ELEMENT_SET_NO = 999
REV_AT_EPOCH   = 623
BSTAR          = .24162E-2
MEAN_MOTION_DOT = .263021E-2
MEAN_MOTION_DDOT = 0

CCSDS_OMM_VERS = 2.0
CREATION_DATE  = 
ORIGINATOR     = 

OBJECT_NAME    = 1998-067XK
OBJECT_ID      = 1998-067XK
CENTER_NAME    = EARTH
REF_FRAME      = TEME
TIME_SYSTEM    = UTC
MEAN_ELEMENT_THEORY = SGP/SGP4

EPOCH          = 2025-10-29T10:31:53.877792
MEAN_MOTION    = 15.57170106
ECCENTRICITY   = .0004625
INCLINATION    = 51.6331
RA_OF_ASC_NODE = 0.4681
ARG_OF_PERICENTER = 30.1386
MEAN_ANOMALY   = 329.9872

EPHEMERIS_TYPE = 0
CLASSIFICATION_TYPE = U
NORAD_CAT_ID   = 65731
ELEMENT_SET_NO = 999
REV_AT_EPOCH   = 622
BSTAR          = .10228E-2
MEAN_MOTION_DOT = .76003E-3
MEAN_MOTION_DDOT = 0

CCSDS_OMM_VERS = 2.0
CREATION_DATE  = 
ORIGINATOR     = 

OBJECT_NAME    = RSP-03
OBJECT_ID      = 1998-067XL
CENTER_NAME    = EARTH
REF_FRAME      = TEME
TIME_SYSTEM    = UTC
MEAN_ELEMENT_THEORY = SGP/SGP4

EPOCH          = 2025-10-29T11:49:43.008096
MEAN_MOTION    = 15.58061180
ECCENTRICITY   = .0005343
INCLINATION    = 51.6330
RA_OF_ASC_NODE = 0.0780
ARG_OF_PERICENTER = 30.7872
MEAN_ANOMALY   = 329.3433

EPHEMERIS_TYPE = 0
CLASSIFICATION_TYPE = U
NORAD_CAT_ID   = 65732
ELEMENT_SET_NO = 999
REV_AT_EPOCH   = 624
BSTAR          = .10925E-2
MEAN_MOTION_DOT = .8409E-3
MEAN_MOTION_DDOT = 0

CCSDS_OMM_VERS = 2.0
CREATION_DATE  = 
ORIGINATOR     = 

OBJECT_NAME    = GHS-01
OBJECT_ID      = 1998-067XM
CENTER_NAME    = EARTH
REF_FRAME      = TEME
TIME_SYSTEM    = UTC
MEAN_ELEMENT_THEORY = SGP/SGP4

EPOCH          = 2025-10-29T09:52:12.527904
MEAN_MOTION    = 15.59592909
ECCENTRICITY   = .0003522
INCLINATION    = 51.6329
RA_OF_ASC_NODE = 0.2847
ARG_OF_PERICENTER = 49.9737
MEAN_ANOMALY   = 310.1564

EPHEMERIS_TYPE = 0
CLASSIFICATION_TYPE = U
NORAD_CAT_ID   = 65733
ELEMENT_SET_NO = 999
REV_AT_EPOCH   = 623
BSTAR          = .13914E-2
MEAN_MOTION_DOT = .114044E-2
MEAN_MOTION_DDOT = 0

CCSDS_OMM_VERS = 2.0
CREATION_DATE  = 
ORIGINATOR     = 

OBJECT_NAME    = YOTSUBA-KULOVER
OBJECT_ID      = 1998-067XN
CENTER_NAME    = EARTH
REF_FRAME      = TEME
TIME_SYSTEM    = UTC
MEAN_ELEMENT_THEORY = SGP/SGP4

EPOCH          = 2025-10-29T06:28:04.707552
MEAN_MOTION    = 15.52825324
ECCENTRICITY   = .00024239
INCLINATION    = 51.6329
RA_OF_ASC_NODE = 2.3338
ARG_OF_PERICENTER = 329.0751
MEAN_ANOMALY   = 31.0096

EPHEMERIS_TYPE = 0
CLASSIFICATION_TYPE = U
NORAD_CAT_ID   = 65941
ELEMENT_SET_NO = 999
REV_AT_EPOCH   = 293
BSTAR          = .97963015E-3
MEAN_MOTION_DOT = .61866E-3
MEAN_MOTION_DDOT = 0

CCSDS_OMM_VERS = 2.0
CREATION_DATE  = 
ORIGINATOR     = 

OBJECT_NAME    = BOTAN
OBJECT_ID      = 1998-067XP
CENTER_NAME    = EARTH
REF_FRAME      = TEME
TIME_SYSTEM    = UTC
MEAN_ELEMENT_THEORY = SGP/SGP4

EPOCH          = 2025-10-29T06:21:51.635808
MEAN_MOTION    = 15.53535995
ECCENTRICITY   = .00044855
INCLINATION    = 51.6330
RA_OF_ASC_NODE = 2.3057
ARG_OF_PERICENTER = 349.8237
MEAN_ANOMALY   = 10.2662

EPHEMERIS_TYPE = 0
CLASSIFICATION_TYPE = U
NORAD_CAT_ID   = 65942
ELEMENT_SET_NO = 999
REV_AT_EPOCH   = 293
BSTAR          = .12538941E-2
MEAN_MOTION_DOT = .81619E-3
MEAN_MOTION_DDOT = 0

CCSDS_OMM_VERS = 2.0
CREATION_DATE  = 
ORIGINATOR     = 

OBJECT_NAME    = E-KAGAKU-1
OBJECT_ID      = 1998-067XQ
CENTER_NAME    = EARTH
REF_FRAME      = TEME
TIME_SYSTEM    = UTC
MEAN_ELEMENT_THEORY = SGP/SGP4

EPOCH          = 2025-10-28T13:28:03.370368
MEAN_MOTION    = 15.52749009
ECCENTRICITY   = .00041477
INCLINATION    = 51.6335
RA_OF_ASC_NODE = 5.8532
ARG_OF_PERICENTER = 335.4056
MEAN_ANOMALY   = 24.6736

EPHEMERIS_TYPE = 0
CLASSIFICATION_TYPE = U
NORAD_CAT_ID   = 65943
ELEMENT_SET_NO = 999
REV_AT_EPOCH   = 282
BSTAR          = .88979813E-3
MEAN_MOTION_DOT = .55962E-3
MEAN_MOTION_DDOT = 0

CCSDS_OMM_VERS = 2.0
CREATION_DATE  = 
ORIGINATOR     = 

OBJECT_NAME    = HRC MONOBLOCK CAMERA
OBJECT_ID      = 1998-067XR
CENTER_NAME    = EARTH
REF_FRAME      = TEME
TIME_SYSTEM    = UTC
MEAN_ELEMENT_THEORY = SGP/SGP4

EPOCH          = 2025-10-29T10:05:38.935392
MEAN_MOTION    = 15.50393475
ECCENTRICITY   = .0004285
INCLINATION    = 51.6333
RA_OF_ASC_NODE = 1.8421
ARG_OF_PERICENTER = 1.4506
MEAN_ANOMALY   = 358.6494

EPHEMERIS_TYPE = 0
CLASSIFICATION_TYPE = U
NORAD_CAT_ID   = 66052
ELEMENT_SET_NO = 999
REV_AT_EPOCH   = 195
BSTAR          = .63945E-3
MEAN_MOTION_DOT = .36728E-3
MEAN_MOTION_DDOT = 0

CCSDS_OMM_VERS = 2.0
CREATION_DATE  = 
ORIGINATOR     = 

OBJECT_NAME    = HTV-X1
OBJECT_ID      = 2025-241A
CENTER_NAME    = EARTH
REF_FRAME      = TEME
TIME_SYSTEM    = UTC
MEAN_ELEMENT_THEORY = SGP/SGP4

EPOCH          = 2025-10-27T11:51:43.149024
MEAN_MOTION    = 15.52723727
ECCENTRICITY   = .0004046
INCLINATION    = 51.6338
RA_OF_ASC_NODE = 11.4824
ARG_OF_PERICENTER = 344.0379
MEAN_ANOMALY   = 16.0483

EPHEMERIS_TYPE = 0
CLASSIFICATION_TYPE = U
NORAD_CAT_ID   = 66174
ELEMENT_SET_NO = 999
REV_AT_EPOCH   = 24
BSTAR          = .16773E-3
MEAN_MOTION_DOT = .10095E-3
MEAN_MOTION_DDOT = 0

